[{"OBJECT_NAME":"STARLINK-2480","OBJECT_ID":"2021-027AX","EPOCH":"2026-03-10T00:00:02.999808","MEAN_MOTION":15.0892407,"ECCENTRICITY":0.00016687,"INCLINATION":53.0606,"RA_OF_ASC_NODE":150.1899,"ARG_OF_PERICENTER":123.9826,"MEAN_ANOMALY":133.8793,"EPHEMERIS_TYPE":0,"CLASSIFICATION_TYPE":"U","NORAD_CAT_ID":48137,"ELEMENT_SET_NO":999,"REV_AT_EPOCH":579,"BSTAR":0.0053933076,"MEAN_MOTION_DOT":0.00086813,"MEAN_MOTION_DDOT":0},{"OBJECT_NAME":"CZ-6A DEB","OBJECT_ID":"2024-126C","EPOCH":"2026-03-09T22:45:09.534528","MEAN_MOTION":15.08339588,"ECCENTRICITY":0.00034995,"INCLINATION":97.8272,"RA_OF_ASC_NODE":88.0703,"ARG_OF_PERICENTER":249.9832,"MEAN_ANOMALY":110.1019,"EPHEMERIS_TYPE":0,"CLASSIFICATION_TYPE":"U","NORAD_CAT_ID":60213,"ELEMENT_SET_NO":999,"REV_AT_EPOCH":9177,"BSTAR":0.0010886629,"MEAN_MOTION_DOT":0.00016868,"MEAN_MOTION_DDOT":0}]
